COSMOS 2251 DEB         
1 38196U 93036BSL 17345.18739495  .00002195  00000-0  54667-3 0  9992
2 38196  73.8922 280.5141 0199543 352.2016   7.6045 14.41003178353957
